IDEFIX & ARIANE 42P R/B 
1 27422U 02021B   25345.11484984  .00000502  00000+0  20742-3 0  9994
2 27422  98.5783 279.8267 0012938  88.0034 272.2630 14.30948398231351
AQUA                    
1 27424U 02022A   25345.19667729  .00001689  00000+0  34822-3 0  9996
2 27424  98.4036 306.0506 0001024 115.4514  14.6405 14.61802805255804
CZ-4B R/B               
1 27432U 02024C   25345.15000742  .00000084  00000+0  66295-4 0  9997
2 27432  98.8999  33.9271 0049156 274.5101  94.9856 14.14527335216726
MIDORI II (ADEOS-II)    
1 27597U 02056A   25344.61515003  .00000481  00000+0  20701-3 0  9997
2 27597  98.7632 297.5602 0000077 121.3907 238.7282 14.29203564197572
H-2A R/B                
1 27601U 02056E   25345.13556102  .00000562  00000+0  21125-3 0  9997
2 27601  98.3063 303.9561 0071406  65.8421 305.2589 14.33673943201422
CZ-4B R/B               
1 28059U 03049C   25345.22016090  .00000612  00000+0  15191-3 0  9997
2 28059  98.6788 331.7267 0048929 140.6553 219.8214 14.54907042173731
CZ-2C R/B               
1 28222U 04012C   25345.19552409  .00054546  00000+0  79568-3 0  9998
2 28222  97.7426  37.6885 0016586 276.4423  83.4941 15.55356947190485
SL-16 R/B               
1 28353U 04021B   25345.20725051 -.00000214  00000+0 -86529-4 0  9991
2 28353  71.0018  58.1814 0005375 202.6927 157.3958 14.14581129110326
CZ-4B R/B               
1 28415U 04035C   25345.05453569  .00012494  00000+0  46255-3 0  9992
2 28415  97.3613  15.4207 0031661 283.8046  75.9671 15.27323929166379
CZ-2C R/B               
1 28480U 04046B   25345.20596763  .00000312  00000+0  13042-3 0  9991
2 28480  98.1989 260.6791 0140550  56.8085 304.6485 14.26939448 95886
CZ-2D R/B               
1 28738U 05024B   25344.98236992  .00039252  00000+0  62776-3 0  9996
2 28738  97.3639 352.3826 0005778  12.5226 347.6170 15.53034585125983
